[{"OBJECT_NAME":"IRIDIUM 105","OBJECT_ID":"2017-003E","EPOCH":"2026-03-09T19:29:46.518144","MEAN_MOTION":14.34401202,"ECCENTRICITY":0.0002251,"INCLINATION":86.3921,"RA_OF_ASC_NODE":98.4421,"ARG_OF_PERICENTER":92.6468,"MEAN_ANOMALY":267.4986,"EPHEMERIS_TYPE":0,"CLASSIFICATION_TYPE":"U","NORAD_CAT_ID":41921,"ELEMENT_SET_NO":999,"REV_AT_EPOCH":48089,"BSTAR":7.7196279e-5,"MEAN_MOTION_DOT":2.37e-6,"MEAN_MOTION_DDOT":0},{"OBJECT_NAME":"FENGYUN 1C DEB","OBJECT_ID":"1999-025DHL","EPOCH":"2026-03-09T04:35:04.470144","MEAN_MOTION":14.14141855,"ECCENTRICITY":0.00997099,"INCLINATION":99.1449,"RA_OF_ASC_NODE":155.7864,"ARG_OF_PERICENTER":89.3554,"MEAN_ANOMALY":302.0136,"EPHEMERIS_TYPE":0,"CLASSIFICATION_TYPE":"U","NORAD_CAT_ID":33723,"ELEMENT_SET_NO":999,"REV_AT_EPOCH":64845,"BSTAR":0.0021801121,"MEAN_MOTION_DOT":4.312e-5,"MEAN_MOTION_DDOT":0}]
